NORAD_CAT_ID,OBJECT_NAME,OBJECT_TYPE,EPOCH,MEAN_MOTION,ECCENTRICITY,INCLINATION,RA_OF_ASC_NODE,ARG_OF_PERICENTER,MEAN_ANOMALY,BSTAR,MEAN_MOTION_DOT,MEAN_MOTION_DDOT,TLE_LINE0,TLE_LINE1,TLE_LINE2,SEMIMAJOR_AXIS,PERIOD,APOGEE,PERIGEE,DECAYED
56479.0,STARLINK-6044,PAYLOAD,2024-03-26 11:54:53,14.98323083,0.0002888,69.9985,122.519,266.0934,93.9894,-0.00021998,-2.716e-05,0.0,0 STARLINK-6044,1 56479U 23064AH  24086.49645527 -.00002716  00000-0 -21998-3 0  9998,2 56479  69.9985 122.5190 0002888 266.0934  93.9894 14.98323083 48910,6950.214,96.107,574.087,570.072,0.0
56479.0,STARLINK-6044,PAYLOAD,2024-03-26 19:55:33,14.98327813,0.0003014,69.9987,121.6751,260.6028,99.4791,-0.00021707,-2.682e-05,0.0,0 STARLINK-6044,1 56479U 23064AH  24086.83025244 -.00002682  00000-0 -21707-3 0  9994,2 56479  69.9987 121.6751 0003014 260.6028  99.4791 14.98327813 49329,6950.2,96.107,574.159,569.97,0.0
56479.0,STARLINK-6044,PAYLOAD,2024-03-27 11:56:54,14.98323077,0.0002863,69.9983,119.9941,260.6863,99.3973,8.8556e-05,9.64e-06,0.0,0 STARLINK-6044,1 56479U 23064AH  24087.49785247  .00000964  00000-0  88556-4 0  9998,2 56479  69.9983 119.9941 0002863 260.6863  99.3973 14.98323077 49064,6950.214,96.107,574.069,570.089,0.0
56479.0,STARLINK-6044,PAYLOAD,2024-03-27 19:57:34,14.98328321,0.0002849,69.9986,119.1523,266.5758,93.5075,8.1403e-05,8.78e-06,0.0,0 STARLINK-6044,1 56479U 23064AH  24087.83165135  .00000878  00000-0  81403-4 0  9992,2 56479  69.9986 119.1523 0002849 266.5758  93.5075 14.98328321 49478,6950.198,96.107,574.043,570.083,0.0
56479.0,STARLINK-6044,PAYLOAD,2024-03-28 11:58:57,14.98306115,0.0002825,69.9982,117.4685,267.6082,92.4754,-5.9523e-05,-8.03e-06,0.0,0 STARLINK-6044,1 56479U 23064AH  24088.49927300 -.00000803  00000-0 -59523-4 0  9993,2 56479  69.9982 117.4685 0002825 267.6082  92.4754 14.98306115 49570,6950.267,96.109,574.095,570.168,0.0
56479.0,STARLINK-6044,PAYLOAD,2024-03-29 04:00:17,14.9832007,0.0002571,69.9991,115.787,257.4648,102.6223,-3.3632e-05,-4.94e-06,0.0,0 STARLINK-6044,1 56479U 23064AH  24089.16686993 -.00000494  00000-0 -33632-4 0  9997,2 56479  69.9991 115.7870 0002571 257.4648 102.6223 14.98320070 49672,6950.224,96.108,573.876,570.302,0.0
56479.0,STARLINK-6044,PAYLOAD,2024-03-29 12:00:54,14.98364594,0.0002724,69.9982,114.9444,266.3805,93.7042,0.00042661,5.005e-05,0.0,0 STARLINK-6044,1 56479U 23064AH  24089.50062866  .00005005  00000-0  42661-3 0  9994,2 56479  69.9982 114.9444 0002724 266.3805  93.7042 14.98364594 49728,6950.086,96.105,573.844,570.058,0.0
56479.0,STARLINK-6044,PAYLOAD,2024-03-29 18:25:27,14.98349809,0.0002502,69.9983,114.2709,271.4244,88.6628,0.00019841,2.276e-05,0.0,0 STARLINK-6044,1 56479U 23064AH  24089.76768097  .00002276  00000-0  19841-3 0  9992,2 56479  69.9983 114.2709 0002502 271.4244  88.6628 14.98349809 49763,6950.132,96.106,573.736,570.258,0.0
56479.0,STARLINK-6044,PAYLOAD,2024-03-30 05:38:24,14.9834534,0.0002269,69.9993,113.0944,269.4341,90.6558,0.00014117,1.592e-05,0.0,0 STARLINK-6044,1 56479U 23064AH  24090.23500137  .00001592  00000-0  14117-3 0  9996,2 56479  69.9993 113.0944 0002269 269.4341  90.6558 14.98345340 49836,6950.145,96.106,573.587,570.433,0.0
56479.0,STARLINK-6044,PAYLOAD,2024-03-30 10:26:48,14.9833741,0.0002237,69.9993,112.5898,262.6781,97.4123,0.00011453,1.274e-05,0.0,0 STARLINK-6044,1 56479U 23064AH  24090.43528560  .00001274  00000-0  11453-3 0  9995,2 56479  69.9993 112.5898 0002237 262.6781  97.4123 14.98337410 49861,6950.17,96.107,573.59,570.48,0.0
56479.0,STARLINK-6044,PAYLOAD,2024-03-30 18:27:29,14.98327688,0.00023,69.9986,111.7476,265.6557,94.4339,0.00021216,2.439e-05,0.0,0 STARLINK-6044,1 56479U 23064AH  24090.76908778  .00002439  00000-0  21216-3 0  9996,2 56479  69.9986 111.7476 0002300 265.6557  94.4339 14.98327688 49559,6950.2,96.107,573.664,570.466,0.0
56479.0,STARLINK-6044,PAYLOAD,2024-03-31 10:28:49,14.9833605,0.0002352,69.9985,110.0631,267.0144,93.0746,-8.3708e-06,-1.93e-06,0.0,0 STARLINK-6044,1 56479U 23064AH  24091.43668516 -.00000193  00000-0 -83708-5 0  9997,2 56479  69.9985 110.0631 0002352 267.0144  93.0746 14.98336050 50011,6950.174,96.107,573.674,570.405,0.0
56479.0,STARLINK-6044,PAYLOAD,2024-03-31 18:29:29,14.98353975,0.000234,69.9987,109.2214,270.251,89.8381,-0.0004252,-5.166e-05,0.0,0 STARLINK-6044,1 56479U 23064AH  24091.77048112 -.00005166  00000-0 -42520-3 0  9998,2 56479  69.9987 109.2214 0002340 270.2510  89.8381 14.98353975 50068,6950.119,96.105,573.61,570.357,0.0
56479.0,STARLINK-6044,PAYLOAD,2024-04-01 04:06:18,14.98330056,0.0002544,69.9981,108.2106,272.7561,87.3307,-7.2148e-05,-9.54e-06,0.0,0 STARLINK-6044,1 56479U 23064AH  24092.17104431 -.00000954  00000-0 -72148-4 0  9990,2 56479  69.9981 108.2106 0002544 272.7561  87.3307 14.98330056 50123,6950.193,96.107,573.826,570.29,0.0
56479.0,STARLINK-6044,PAYLOAD,2024-04-01 10:30:50,14.98332084,0.0002331,69.9985,107.5378,269.6123,90.4768,-0.00015952,-1.996e-05,0.0,0 STARLINK-6044,1 56479U 23064AH  24092.43808503 -.00001996  00000-0 -15952-3 0  9996,2 56479  69.9985 107.5378 0002331 269.6123  90.4768 14.98332084 49805,6950.186,96.107,573.672,570.431,0.0
56479.0,STARLINK-6044,PAYLOAD,2024-04-02 10:32:51,14.98331502,0.0002561,69.9981,105.012,272.8207,87.2659,-4.5998e-06,-1.48e-06,0.0,0 STARLINK-6044,1 56479U 23064AH  24093.43947969 -.00000148  00000-0 -45998-5 0  9990,2 56479  69.9981 105.0120 0002561 272.8207  87.2659 14.98331502 50318,6950.188,96.107,573.833,570.273,0.0
56479.0,STARLINK-6044,PAYLOAD,2024-04-02 18:33:31,14.98330846,0.0002605,69.9982,104.1705,273.1553,86.9308,2.5945e-05,2.17e-06,0.0,0 STARLINK-6044,1 56479U 23064AH  24093.77327881  .00000217  00000-0  25945-4 0  9996,2 56479  69.9982 104.1705 0002605 273.1553  86.9308 14.98330846 50008,6950.19,96.107,573.866,570.245,0.0
56479.0,STARLINK-6044,PAYLOAD,2024-04-03 10:34:51,14.98331763,0.000263,69.998,102.4871,273.2187,86.8671,7.1417e-05,7.59e-06,0.0,0 STARLINK-6044,1 56479U 23064AH  24094.44087655  .00000759  00000-0  71417-4 0  9999,2 56479  69.9980 102.4871 0002630 273.2187  86.8671 14.98331763 50464,6950.187,96.107,573.88,570.225,0.0
56479.0,STARLINK-6044,PAYLOAD,2024-04-04 10:36:52,14.98333362,0.0002614,69.9981,99.962,273.6264,86.4596,1.5909e-05,9.7e-07,0.0,0 STARLINK-6044,1 56479U 23064AH  24095.44227512  .00000097  00000-0  15909-4 0  9997,2 56479  69.9981  99.9620 0002614 273.6264  86.4596 14.98333362 50615,6950.182,96.107,573.864,570.231,0.0
56479.0,STARLINK-6044,PAYLOAD,2024-04-04 17:01:24,14.98331803,0.0002608,69.9981,99.2886,273.7921,86.294,-1.3362e-06,-1.09e-06,0.0,0 STARLINK-6044,1 56479U 23064AH  24095.70931594 -.00000109  00000-0 -13362-5 0  9996,2 56479  69.9981  99.2886 0002608 273.7921  86.2940 14.98331803 50299,6950.187,96.107,573.865,570.24,0.0
56479.0,STARLINK-6044,PAYLOAD,2024-04-05 09:02:46,14.98324984,0.0002651,69.998,97.6052,273.6725,86.4131,-9.6536e-05,-1.244e-05,0.0,0 STARLINK-6044,1 56479U 23064AH  24096.37692263 -.00001244  00000-0 -96536-4 0  9991,2 56479  69.9980  97.6052 0002651 273.6725  86.4131 14.98324984 50751,6950.208,96.107,573.916,570.231,0.0
56479.0,STARLINK-6044,PAYLOAD,2024-04-05 17:03:26,14.98312123,0.000259,69.998,96.7636,269.885,90.2012,0.0001641,1.865e-05,0.0,0 STARLINK-6044,1 56479U 23064AH  24096.71072576  .00001865  00000-0  16410-3 0  9997,2 56479  69.9980  96.7636 0002590 269.8850  90.2012 14.98312123 50446,6950.248,96.108,573.913,570.313,0.0
56479.0,STARLINK-6044,PAYLOAD,2024-04-06 10:40:55,14.98325596,0.0002629,69.9981,94.9117,274.0797,86.0061,2.5213e-06,-6.3e-07,0.0,0 STARLINK-6044,1 56479U 23064AH  24097.44508193 -.00000063  00000-0  25213-5 0  9990,2 56479  69.9981  94.9117 0002629 274.0797  86.0061 14.98325596 50919,6950.207,96.107,573.899,570.244,0.0
56479.0,STARLINK-6044,PAYLOAD,2024-04-07 09:06:47,14.98326714,0.0002595,69.9983,92.5552,273.9211,86.1651,9.2406e-05,1.01e-05,0.0,0 STARLINK-6044,1 56479U 23064AH  24098.37971993  .00001010  00000-0  92406-4 0  9994,2 56479  69.9983  92.5552 0002595 273.9211  86.1651 14.98326714 50693,6950.203,96.107,573.872,570.264,0.0
56479.0,STARLINK-6044,PAYLOAD,2024-04-07 17:07:28,14.9832942,0.0002601,69.9983,91.7135,273.9466,86.1396,9.0034e-05,9.81e-06,0.0,0 STARLINK-6044,1 56479U 23064AH  24098.71351861  .00000981  00000-0  90034-4 0  9999,2 56479  69.9983  91.7135 0002601 273.9466  86.1396 14.98329420 51101,6950.195,96.107,573.867,570.252,0.0
56479.0,STARLINK-6044,PAYLOAD,2024-04-08 09:08:48,14.98335058,0.0002611,69.9984,90.0303,274.554,85.5321,0.00010228,1.128e-05,0.0,0 STARLINK-6044,1 56479U 23064AH  24099.38111356  .00001128  00000-0  10228-3 0  9996,2 56479  69.9984  90.0303 0002611 274.5540  85.5321 14.98335058 50847,6950.177,96.107,573.857,570.228,0.0
56479.0,STARLINK-6044,PAYLOAD,2024-04-08 17:09:28,14.98333083,0.0002604,69.9984,89.1886,274.7826,85.3035,3.9334e-05,3.76e-06,0.0,0 STARLINK-6044,1 56479U 23064AH  24099.71491545  .00000376  00000-0  39334-4 0  9998,2 56479  69.9984  89.1886 0002604 274.7826  85.3035 14.98333083 51255,6950.183,96.107,573.858,570.239,0.0
56479.0,STARLINK-6044,PAYLOAD,2024-04-08 23:34:01,14.9833182,0.0002574,69.9986,88.5154,274.5903,85.4962,-8.4492e-06,-1.94e-06,0.0,0 STARLINK-6044,1 56479U 23064AH  24099.98195714 -.00000194  00000-0 -84492-5 0  9992,2 56479  69.9986  88.5154 0002574 274.5903  85.4962 14.98331820 50939,6950.187,96.107,573.841,570.263,0.0
56479.0,STARLINK-6044,PAYLOAD,2024-04-09 09:10:49,14.98333516,0.0002549,69.9987,87.5052,274.2644,85.8223,1.1502e-05,4.4e-07,0.0,0 STARLINK-6044,1 56479U 23064AH  24100.38251465  .00000044  00000-0  11502-4 0  9998,2 56479  69.9987  87.5052 0002549 274.2644  85.8223 14.98333516 50991,6950.182,96.107,573.819,570.275,0.0
56479.0,STARLINK-6044,PAYLOAD,2024-04-10 04:24:25,14.98335177,0.0002559,69.9988,85.4853,274.2047,85.882,-1.6651e-05,-2.92e-06,0.0,0 STARLINK-6044,1 56479U 23064AH  24101.18363182 -.00000292  00000-0 -16651-4 0  9994,2 56479  69.9988  85.4853 0002559 274.2047  85.8820 14.98335177 51478,6950.177,96.107,573.82,570.263,0.0
